SIRION PATHFINDER-2     
1 43759U 18099B   26140.56274851  .00003511  00000+0  19531-3 0  9997
2 43759  97.4267 190.2795 0009702  44.9718 315.2298 15.14264907408448
CORVUS BC4              
1 43767U 18099K   26140.59823864  .00003183  00000+0  18765-3 0  9996
2 43767  97.4085 184.3885 0010090  96.7989 263.4390 15.12241662408231
M2 PATHFINDER           
1 45727U 20037E   26140.51415251  .00000978  00000+0  74278-4 0  9999
2 45727  97.8158 331.4369 0009999 242.7034 117.3174 15.04539315321334
NETSAT-4                
1 46504U 20068U   26140.95894731  .00012073  00000+0  27705-3 0  9990
2 46504  97.8616 147.0338 0007302  69.3171 290.8858 15.42862153311577
NETSAT-3                
1 46505U 20068V   26140.94395296  .00012716  00000+0  30377-3 0  9995
2 46505  97.8665 145.2693 0007376  82.3263 277.8820 15.41638195311484
NETSAT-1                
1 46506U 20068W   26140.93921334  .00009237  00000+0  28410-3 0  9992
2 46506  97.8754 139.9109 0006981 102.0976 258.1048 15.33902178311129
NETSAT-2                
1 46507U 20068X   26140.90457956  .00015614  00000+0  33604-3 0  9991
2 46507  97.8632 146.7759 0006248  92.5445 267.6517 15.44715212311525
GREENCUBE (IO-117)      
1 53109U 22080E   26140.48101738 -.00000003  00000+0  00000+0 0  9997
2 53109  70.1431 307.8842 0008837 296.2012  63.7739  6.42583336 90280
SITRO-AIS 5 (KATYS)     
1 57176U 23091L   26140.91250490  .00008489  00000+0  30590-3 0  9992
2 57176  97.5068 204.5649 0011496 190.6400 169.4598 15.28749548160174
SITRO-AIS 6 (CHIRKIN)   
1 57192U 23091AC  26140.96079841  .00006549  00000+0  26215-3 0  9998
2 57192  97.5076 203.8744 0011640 193.8382 166.2538 15.25350808160133
SITRO-AIS 8 (ANOKHIN)   
1 57193U 23091AD  26140.91079540  .00009668  00000+0  32177-3 0  9999
2 57193  97.5065 206.0438 0010820 186.1547 173.9562 15.31305211160276
SITRO-AIS 7 (FARTUSHNIY)
1 57194U 23091AE  26140.95849394  .00006320  00000+0  25538-3 0  9991
2 57194  97.5074 203.7109 0011445 194.8602 165.2301 15.25052095160129
SITRO-AIS 10 (BURDAEV)  
1 57199U 23091AK  26140.92419250  .00013387  00000+0  36616-3 0  9997
2 57199  97.5086 210.8371 0007741 160.2453 199.9092 15.37461237160577
SITRO-AIS 9 (SHCHUKIN)  
1 57201U 23091AM  26140.94224358  .00013432  00000+0  37278-3 0  9992
2 57201  97.5085 210.6063 0007949 160.5688 199.5861 15.37004819160567
SITRO-AIS 12 (SMIRENNIY)
1 57204U 23091AQ  26140.93796155  .00013641  00000+0  37510-3 0  9994
2 57204  97.5097 211.0521 0007710 155.1875 204.9741 15.37291007160588
SITRO-AIS 11 (SHEFFER)  
1 57208U 23091AU  26140.95867619  .00013617  00000+0  36969-3 0  9994
2 57208  97.5096 211.3033 0007618 155.0312 205.1302 15.37688962160603
SITRO-AIS 25            
1 59066U 24039R   26140.97203462  .00002924  00000+0  22812-3 0  9994
2 59066  95.3915 216.3931 0147145  63.7261 297.8998 14.93311190120661
SITRO-AIS 26            
1 59067U 24039S   26140.96973087  .00002774  00000+0  21753-3 0  9997
2 59067  95.3916 216.2948 0147474  64.2709 297.3656 14.93112658120651
SITRO-AIS 27            
1 59068U 24039T   26140.94755941  .00003204  00000+0  24876-3 0  9991
2 59068  95.3917 216.5387 0146448  63.0523 298.5576 14.93522942120671
SITRO-AIS 28            
1 59071U 24039U   26140.99261954  .00002869  00000+0  22292-3 0  9992
2 59071  95.3917 216.6154 0146265  62.7168 298.8867 14.93558435120689
GRBBETA                 
1 60237U 24128C   26140.94061724  .00003036  00000+0  21533-3 0  9999
2 60237  61.9903 311.8442 0044395 129.0524 231.4532 15.06387472102162
OOV-CUBE (TUBSAT-30)    
1 60240U 24128F   26140.77316228  .00001624  00000+0  13424-3 0  9997
2 60240  61.9944 321.1545 0048086 127.8023 232.7437 15.02615779101998
ROBUSTA-3A (MEDITERRAN*)
1 60243U 24128J   26140.87837275  .00005917  00000+0  35523-3 0  9994
2 60243  61.9870 304.7859 0045248 122.7731 237.7736 15.11195263102293
LASARSAT                
1 62391U 24247Q   26140.82849373  .00022182  00000+0  47396-3 0  9993
2 62391  44.9760  55.7382 0005860 176.3157 183.7776 15.44503182 79088
CROCUBE                 
1 62394U 24247T   26140.14683537  .00026334  00000+0  53126-3 0  9990
2 62394  44.9733  57.3164 0005420 174.7904 185.3043 15.46099852 79004
FORESAIL-1 PRIME        
1 66778U 25276DS  26140.78242210  .00003070  00000+0  15247-3 0  9996
2 66778  97.4203 214.5595 0002549 163.8422 196.2894 15.18417347 26242
KNACKSAT-2              
1 67683U 98067XZ  26140.97376188  .00030491  00000+0  41240-3 0  9992
2 67683  51.6306  71.0942 0012086  99.7752 260.4606 15.57378224 16030
